     2.11           N: GPS NAV DATA                         RINEX VERSION / TYPE
teqc  2019Feb25     CORS-ADM Account    20200810 15:50:31UTCPGM / RUN BY / DATE
Linux 2.4.21-27.ELsmp|Opteron|gcc|Linux 64|=+               COMMENT
     2.10           N: GPS NAV DATA                         COMMENT
rvacn.e(1404.07)                        2020-08-09T15:35 UTCCOMMENT
This file contains the validated broadcast navigation       COMMENT
messages from the following files:                          COMMENT
abmf2190.20n, abpo2190.20n, albh2190.20n, alic2190.20n,     COMMENT
areq2190.20n, aspa2190.20n, badg2190.20n, bake2190.20n,     COMMENT
barh2190.20n, bjfs2190.20n, bogt2190.20n, brew2190.20n,     COMMENT
brft2190.20n, brmu2190.20n, cas12190.20n, cedu2190.20n,     COMMENT
chum2190.20n, chur2190.20n, ckis2190.20n, coco2190.20n,     COMMENT
cro12190.20n, daej2190.20n, darw2190.20n, dav12190.20n,     COMMENT
dgar2190.20n, drao2190.20n, dubo2190.20n, fair2190.20n,     COMMENT
falk2190.20n, flin2190.20n, glps2190.20n, glsv2190.20n,     COMMENT
gode2190.20n, godz2190.20n, gold2190.20n, guug2190.20n,     COMMENT
harb2190.20n, hlfx2190.20n, hob22190.20n, holb2190.20n,     COMMENT
hrao2190.20n, iisc2190.20n, invk2190.20n, irkj2190.20n,     COMMENT
jplm2190.20n, karr2190.20n, kat12190.20n, kerg2190.20n,     COMMENT
kgni2190.20n, kiri2190.20n, kokb2190.20n, kokv2190.20n,     COMMENT
krgg2190.20n, laut2190.20n, lmmf2190.20n, lpal2190.20n,     COMMENT
mac12190.20n, mana2190.20n, maui2190.20n, maw12190.20n,     COMMENT
mbar2190.20n, mcm42190.20n, mdo12190.20n, mdvj2190.20n,     COMMENT
mkea2190.20n, mobs2190.20n, mtka2190.20n, nano2190.20n,     COMMENT
nico2190.20n, nium2190.20n, nklg2190.20n, nya12190.20n,     COMMENT
nyal2190.20n, ohi22190.20n, pie12190.20n, pimo2190.20n,     COMMENT
pol22190.20n, polv2190.20n, reun2190.20n, sant2190.20n,     COMMENT
sch22190.20n, scor2190.20n, stjo2190.20n, suth2190.20n,     COMMENT
suwn2190.20n, sydn2190.20n, tcms2190.20n, tehn2190.20n,     COMMENT
thti2190.20n, tid12190.20n, tow22190.20n, tro12190.20n,     COMMENT
twtf2190.20n, unbj2190.20n, vndp2190.20n, whit2190.20n,     COMMENT
will2190.20n, xmis2190.20n, yar22190.20n, yarr2190.20n,     COMMENT
yebe2190.20n, yell2190.20n, zamb2190.20n                    COMMENT
    4.6566D-09  1.4901D-08 -5.9605D-08 -5.9605D-08          ION ALPHA
    7.7824D+04  4.9152D+04 -6.5536D+04 -3.2768D+05          ION BETA
    1.862645149231D-09 7.993605777301D-15   589824     2117 DELTA-UTC: A0,A1,T,W
                                                            END OF HEADER
 1 20  8  5 22  0  0.0 3.184610977769D-05 2.842170943040D-12 0.000000000000D+00
    3.900000000000D+01 2.640625000000D+01 4.458042838236D-09-1.047492034168D+00
    1.642853021622D-06 1.007490092888D-02 1.622363924980D-06 5.153701227188D+03
    3.384000000000D+05 1.899898052216D-07 1.821410626732D+00 8.568167686462D-08
    9.807250762331D-01 3.573750000000D+02 8.170312784379D-01-8.355348033783D-09
    2.310810540249D-10 1.000000000000D+00 2.117000000000D+03 0.000000000000D+00
    2.000000000000D+00 0.000000000000D+00 5.122274160385D-09 3.900000000000D+01
    3.312180000000D+05 4.000000000000D+00
 2 20  8  5 22  0  0.0-4.979530349374D-04-5.570655048359D-12 0.000000000000D+00
    3.700000000000D+01 4.306250000000D+01 5.045567519346D-09-7.990660709607D-01
    2.497807145119D-06 1.975495170336D-02 2.996996045113D-06 5.153747674942D+03
    3.384000000000D+05-3.147870302200D-07 1.743639142575D+00 1.583248376846D-07
    9.596530447613D-01 3.298125000000D+02-1.612795107344D+00-8.845368881794D-09
    3.432285844429D-10 1.000000000000D+00 2.117000000000D+03 0.000000000000D+00
    2.000000000000D+00 0.000000000000D+00-1.769512891769D-08 3.700000000000D+01
    3.311400000000D+05
 3 20  8  5 22  0  0.0-2.614581026137D-04-1.125499693444D-11 0.000000000000D+00
    2.900000000000D+01-1.184062500000D+02 4.488401245642D-09-2.142558379322D+00
   -6.113201379776D-06 3.126260591671D-03 7.353723049164D-06 5.153779632568D+03
    3.384000000000D+05 9.499490261078D-08 2.861619003906D+00 3.166496753693D-08
    9.667370675650D-01 2.401250000000D+02 8.170366531990D-01-8.108194881720D-09
   -2.167947446570D-10 1.000000000000D+00 2.117000000000D+03 0.000000000000D+00
    2.000000000000D+00 0.000000000000D+00 1.862645149231D-09 2.900000000000D+01
    3.312180000000D+05 4.000000000000D+00
 4 20  8  5 22  0  0.0-1.211087219417D-04-4.433786671143D-12 0.000000000000D+00
    3.500000000000D+01 3.218750000000D+00 4.427327273095D-09 2.340158631743D-01
    6.332993507385D-08 8.009390439838D-04 1.115351915359D-05 5.153654741287D+03
    3.384000000000D+05-5.215406417847D-08-2.342760833849D+00-1.490116119385D-08
    9.601615243643D-01 1.598437500000D+02-2.711447382164D+00-7.920329913532D-09
    3.285851154604D-10 1.000000000000D+00 2.117000000000D+03 0.000000000000D+00
    2.000000000000D+00 0.000000000000D+00-4.190952000000D-09 3.500000000000D+01
    3.312000000000D+05 4.000000000000D+00
 6 20  8  5 22  0  0.0-3.121723420918D-04-4.433786671143D-12 0.000000000000D+00
    8.900000000000D+01 3.403125000000D+01 4.464471459187D-09-7.734551108585D-01
    1.523643732071D-06 1.762714469805D-03 2.283602952957D-06 5.153586942673D+03
    3.384000000000D+05-4.470348358154D-08 1.813157409078D+00-4.470348358154D-08
    9.802640580813D-01 3.475625000000D+02-1.081334023845D+00-8.334275491961D-09
    2.485817940379D-10 1.000000000000D+00 2.117000000000D+03 0.000000000000D+00
    2.000000000000D+00 0.000000000000D+00 4.190951585770D-09 8.900000000000D+01
    3.456000000000D+05
 8 20  8  5 22  0  0.0-4.347041249275D-05-1.250555214938D-12 0.000000000000D+00
    6.100000000000D+01 9.434375000000D+01 3.976237117342D-09 1.250436070321D+00
    4.902482032776D-06 5.379177280702D-03 1.004710793495D-05 5.153708063126D+03
    3.384000000000D+05 9.313225746155D-09 7.503779117034D-01 1.136213541031D-07
    9.694766406049D-01 1.900312500000D+02-5.983355425056D-02-7.781753019742D-09
    1.317912029508D-10 1.000000000000D+00 2.117000000000D+03 0.000000000000D+00
    2.800000000000D+00 0.000000000000D+00 5.122274160385D-09 6.100000000000D+01
    3.456000000000D+05
 9 20  8  5 22  0  0.0-2.656579017639D-04-6.139089236967D-12 0.000000000000D+00
    3.100000000000D+01-7.031250000000D+00 4.550546691392D-09 1.500630062191D+00
   -5.010515451431D-07 1.605443889275D-03 1.176632940769D-05 5.153686557770D+03
    3.384000000000D+05-2.048909664154D-08-2.391229476397D+00-5.587935447693D-09
    9.529516364779D-01 1.455625000000D+02 1.777891643158D+00-7.921401386735D-09
    3.367997433469D-10 1.000000000000D+00 2.117000000000D+03 0.000000000000D+00
    2.000000000000D+00 0.000000000000D+00 1.396983861923D-09 3.100000000000D+01
    3.355380000000D+05 4.000000000000D+00
10 20  8  5 22  0  0.0-4.197093658149D-04-1.034550223267D-11 0.000000000000D+00
    1.000000000000D+02-1.052187500000D+02 4.396969011111D-09-3.082900699166D+00
   -5.414709448814D-06 5.767273716629D-03 7.256865501404D-06 5.153673358917D+03
    3.384000000000D+05-1.117587089539D-07 2.858611405256D+00-7.078051567078D-08
    9.666696416707D-01 2.445312500000D+02-2.650196789871D+00-7.944973567930D-09
   -2.446530478206D-10 1.000000000000D+00 2.117000000000D+03 0.000000000000D+00
    2.000000000000D+00 0.000000000000D+00 2.328306436539D-09 1.000000000000D+02
    3.456000000000D+05
11 20  8  5 22  0  0.0-2.008760347962D-04 1.057287590811D-11 0.000000000000D+00
    6.500000000000D+01 1.117187500000D+02 5.677379342781D-09-1.564509484626D+00
    6.074085831642D-06 1.607158663683D-02 4.556030035019D-06 5.153721055984D+03
    3.384000000000D+05-2.514570951462D-07 1.342034893780D+00 2.384185791016D-07
    9.129889979764D-01 2.737500000000D+02 2.019900681520D+00-8.897870632027D-09
    4.393040130612D-10 1.000000000000D+00 2.117000000000D+03 0.000000000000D+00
    2.000000000000D+00 0.000000000000D+00-1.210719347000D-08 6.500000000000D+01
    3.312180000000D+05 4.000000000000D+00
12 20  8  5 22  0  0.0 8.437130600214D-05-4.888534022029D-12 0.000000000000D+00
    7.100000000000D+01-2.393750000000D+01 3.948378751538D-09-2.463992480571D+00
   -1.138076186180D-06 7.930167252198D-03 9.505078196526D-06 5.153649518967D+03
    3.384000000000D+05 1.117587089539D-08-2.100270202856D-01-9.872019290924D-08
    9.776322801600D-01 2.050625000000D+02 1.167321516335D+00-7.551028816374D-09
   -5.018066165455D-10 1.000000000000D+00 2.117000000000D+03 0.000000000000D+00
    2.000000000000D+00 0.000000000000D+00-1.210719347000D-08 7.100000000000D+01
    3.321480000000D+05 4.000000000000D+00
13 20  8  5 22  0  0.0 3.317324444652D-05 3.410605131648D-12 0.000000000000D+00
    8.600000000000D+01 7.281250000000D+00 4.415898313681D-09 4.484363365905D-01
    5.755573511124D-07 4.301500972360D-03 1.035630702972D-05 5.153665090561D+03
    3.384000000000D+05 6.332993507385D-08-2.247258896679D+00 2.793967723846D-08
    9.679015810773D-01 1.819687500000D+02 1.048208410522D+00-7.967117632290D-09
    3.546576365920D-10 1.000000000000D+00 2.117000000000D+03 0.000000000000D+00
    2.000000000000D+00 0.000000000000D+00-1.117587089539D-08 8.600000000000D+01
    3.311400000000D+05
15 20  8  5 22  0  0.0-2.126027829945D-04 2.614797267597D-12 0.000000000000D+00
    1.300000000000D+01-1.868750000000D+01 5.307720929437D-09 2.624783592887D-01
   -6.910413503647D-07 1.252844720148D-02 1.046434044838D-05 5.153729457855D+03
    3.384000000000D+05-4.842877388000D-08-2.482556545268D+00 1.341104507446D-07
    9.285844405492D-01 1.601562500000D+02 8.995997997140D-01-8.483567626172D-09
    1.825076062500D-10 1.000000000000D+00 2.117000000000D+03 0.000000000000D+00
    2.000000000000D+00 0.000000000000D+00-1.071020960808D-08 1.300000000000D+01
    3.311400000000D+05
